[
    {
        "Altitude(m)": 565420.5050448582,
        "Argument of Periapsis(deg)": 0.0,
        "Eccentricity": 0.0,
        "Inclination(deg)": 53.0,
        "Latitude(deg)": -37.33052028845182,
        "Longitude(deg)": -4.82737416012741,
        "Mean Anomaly(deg)": -49.09089999999994,
        "RAAN(deg)": 130.0,
        "Satellite Name": "Starlink Shell 1 591",
        "Satellite Number": 591,
        "Semi-Major Axis(m)": 6931778.249405717,
        "Time(s)": 0
    },
    {
        "Altitude(m)": 565251.5043179159,
        "Argument of Periapsis(deg)": 0.00034857847951123687,
        "Eccentricity": 0.0,
        "Inclination(deg)": 53.0,
        "Latitude(deg)": -36.91798609926758,
        "Longitude(deg)": -4.279115722386863,
        "Mean Anomaly(deg)": -48.46406879644326,
        "RAAN(deg)": 129.99948122992254,
        "Satellite Name": "Starlink Shell 1 591",
        "Satellite Number": 591,
        "Semi-Major Axis(m)": 6931778.249405717,
        "Time(s)": 10
    },
    {
        "Altitude(m)": 565081.6155175866,
        "Argument of Periapsis(deg)": 0.0006971569590224737,
        "Eccentricity": 0.0,
        "Inclination(deg)": 53.0,
        "Latitude(deg)": -36.50251808714599,
        "Longitude(deg)": -3.7371755982556767,
        "Mean Anomaly(deg)": -47.83723759288647,
        "RAAN(deg)": 129.99896245984505,
        "Satellite Name": "Starlink Shell 1 591",
        "Satellite Number": 591,
        "Semi-Major Axis(m)": 6931778.249405717,
        "Time(s)": 20
    },
    {
        "Altitude(m)": 564910.9041045421,
        "Argument of Periapsis(deg)": 0.0010457354385337105,
        "Eccentricity": 0.0,
        "Inclination(deg)": 53.0,
        "Latitude(deg)": -36.08418929245394,
        "Longitude(deg)": -3.2014351479770418,
        "Mean Anomaly(deg)": -47.21040638932982,
        "RAAN(deg)": 129.99844368976758,
        "Satellite Name": "Starlink Shell 1 591",
        "Satellite Number": 591,
        "Semi-Major Axis(m)": 6931778.249405717,
        "Time(s)": 30
    },
    {
        "Altitude(m)": 564739.435761167,
        "Argument of Periapsis(deg)": 0.0013943139180449475,
        "Eccentricity": 0.0,
        "Inclination(deg)": 53.0,
        "Latitude(deg)": -35.6630711349736,
        "Longitude(deg)": -2.6717756182254684,
        "Mean Anomaly(deg)": -46.58357518577306,
        "RAAN(deg)": 129.99792491969012,
        "Satellite Name": "Starlink Shell 1 591",
        "Satellite Number": 591,
        "Semi-Major Axis(m)": 6931778.249405717,
        "Time(s)": 40
    },
    {
        "Altitude(m)": 564567.2763622847,
        "Argument of Periapsis(deg)": 0.0017428923975561844,
        "Eccentricity": 0.0,
        "Inclination(deg)": 53.0,
        "Latitude(deg)": -35.239233443005205,
        "Longitude(deg)": -2.148079265467827,
        "Mean Anomaly(deg)": -45.956743982216395,
        "RAAN(deg)": 129.99740614961263,
        "Satellite Name": "Starlink Shell 1 591",
        "Satellite Number": 591,
        "Semi-Major Axis(m)": 6931778.249405717,
        "Time(s)": 50
    },
    {
        "Altitude(m)": 564394.4919457736,
        "Argument of Periapsis(deg)": 0.002091470877067421,
        "Eccentricity": 0.0,
        "Inclination(deg)": 53.0,
        "Latitude(deg)": -34.81274448331366,
        "Longitude(deg)": -1.6302289562410721,
        "Mean Anomaly(deg)": -45.32991277865969,
        "RAAN(deg)": 129.99688737953517,
        "Satellite Name": "Starlink Shell 1 591",
        "Satellite Number": 591,
        "Semi-Major Axis(m)": 6931778.249405717,
        "Time(s)": 60
    },
    {
        "Altitude(m)": 564221.1486831035,
        "Argument of Periapsis(deg)": 0.0024400493565786582,
        "Eccentricity": 0.0,
        "Inclination(deg)": 53.0,
        "Latitude(deg)": -34.383670991778494,
        "Longitude(deg)": -1.118107757782601,
        "Mean Anomaly(deg)": -44.703081575102885,
        "RAAN(deg)": 129.9963686094577,
        "Satellite Name": "Starlink Shell 1 591",
        "Satellite Number": 591,
        "Semi-Major Axis(m)": 6931778.249405717,
        "Time(s)": 70
    },
    {
        "Altitude(m)": 564047.3128497902,
        "Argument of Periapsis(deg)": 0.002788627836089895,
        "Eccentricity": 0.0,
        "Inclination(deg)": 53.0,
        "Latitude(deg)": -33.95207820461593,
        "Longitude(deg)": -0.6116000324308143,
        "Mean Anomaly(deg)": -44.076250371546216,
        "RAAN(deg)": 129.9958498393802,
        "Satellite Name": "Starlink Shell 1 591",
        "Satellite Number": 591,
        "Semi-Major Axis(m)": 6931778.249405717,
        "Time(s)": 80
    },
    {
        "Altitude(m)": 563873.0507957867,
        "Argument of Periapsis(deg)": 0.0031372063156011316,
        "Eccentricity": 0.0,
        "Inclination(deg)": 53.0,
        "Latitude(deg)": -33.518029890044886,
        "Longitude(deg)": -0.11059101057658885,
        "Mean Anomaly(deg)": -43.44941916798951,
        "RAAN(deg)": 129.99533106930275,
        "Satellite Name": "Starlink Shell 1 591",
        "Satellite Number": 591,
        "Semi-Major Axis(m)": 6931778.249405717,
        "Time(s)": 90
    },
    {
        "Altitude(m)": 563698.4289158587,
        "Argument of Periapsis(deg)": 0.0034857847951123688,
        "Eccentricity": 0.0,
        "Inclination(deg)": 53.0,
        "Latitude(deg)": -33.08158838028858,
        "Longitude(deg)": 0.3850336444480046,
        "Mean Anomaly(deg)": -42.82258796443281,
        "RAAN(deg)": 129.9948122992253,
        "Satellite Name": "Starlink Shell 1 591",
        "Satellite Number": 591,
        "Semi-Major Axis(m)": 6931778.249405717,
        "Time(s)": 100
    },
    {
        "Altitude(m)": 563523.5136198627,
        "Argument of Periapsis(deg)": 0.003834363274623606,
        "Eccentricity": 0.0,
        "Inclination(deg)": 53.0,
        "Latitude(deg)": -32.642814603811345,
        "Longitude(deg)": 0.8753867661794377,
        "Mean Anomaly(deg)": -42.19575676087613,
        "RAAN(deg)": 129.9942935291478,
        "Satellite Name": "Starlink Shell 1 591",
        "Satellite Number": 591,
        "Semi-Major Axis(m)": 6931778.249405717,
        "Time(s)": 110
    },
    {
        "Altitude(m)": 563348.3713030767,
        "Argument of Periapsis(deg)": 0.004182941754134842,
        "Eccentricity": 0.0,
        "Inclination(deg)": 53.0,
        "Latitude(deg)": -32.20176811769168,
        "Longitude(deg)": 1.3605801348048814,
        "Mean Anomaly(deg)": -41.56892555731933,
        "RAAN(deg)": 129.99377475907033,
        "Satellite Name": "Starlink Shell 1 591",
        "Satellite Number": 591,
        "Semi-Major Axis(m)": 6931778.249405717,
        "Time(s)": 120
    },
    {
        "Altitude(m)": 563173.0683164702,
        "Argument of Periapsis(deg)": 0.004531520233646079,
        "Eccentricity": 0.0,
        "Inclination(deg)": 53.0,
        "Latitude(deg)": -31.75850714005058,
        "Longitude(deg)": 1.8407249335878029,
        "Mean Anomaly(deg)": -40.942094353762634,
        "RAAN(deg)": 129.99325598899287,
        "Satellite Name": "Starlink Shell 1 591",
        "Satellite Number": 591,
        "Semi-Major Axis(m)": 6931778.249405717,
        "Time(s)": 130
    },
    {
        "Altitude(m)": 562997.67093702,
        "Argument of Periapsis(deg)": 0.0048800987131573164,
        "Eccentricity": 0.0,
        "Inclination(deg)": 53.0,
        "Latitude(deg)": -31.313088582459688,
        "Longitude(deg)": 2.3159306986327555,
        "Mean Anomaly(deg)": -40.31526315020595,
        "RAAN(deg)": 129.99273721891538,
        "Satellite Name": "Starlink Shell 1 591",
        "Satellite Number": 591,
        "Semi-Major Axis(m)": 6931778.249405717,
        "Time(s)": 140
    },
    {
        "Altitude(m)": 562822.2453380224,
        "Argument of Periapsis(deg)": 0.005228677192668553,
        "Eccentricity": 0.0,
        "Inclination(deg)": 53.0,
        "Latitude(deg)": -30.865568082256196,
        "Longitude(deg)": 2.786305787319419,
        "Mean Anomaly(deg)": -39.6884319466492,
        "RAAN(deg)": 129.99221844883792,
        "Satellite Name": "Starlink Shell 1 591",
        "Satellite Number": 591,
        "Semi-Major Axis(m)": 6931778.249405717,
        "Time(s)": 150
    },
    {
        "Altitude(m)": 562646.8575594535,
        "Argument of Periapsis(deg)": 0.00557725567217979,
        "Eccentricity": 0.0,
        "Inclination(deg)": 53.0,
        "Latitude(deg)": -30.41600003470411,
        "Longitude(deg)": 3.2519578521393893,
        "Mean Anomaly(deg)": -39.06160074309255,
        "RAAN(deg)": 129.99169967876045,
        "Satellite Name": "Starlink Shell 1 591",
        "Satellite Number": 591,
        "Semi-Major Axis(m)": 6931778.249405717,
        "Time(s)": 160
    },
    {
        "Altitude(m)": 562471.573478383,
        "Argument of Periapsis(deg)": 0.0059258341516910265,
        "Eccentricity": 0.0,
        "Inclination(deg)": 53.0,
        "Latitude(deg)": -29.964437624949056,
        "Longitude(deg)": 3.712992806688047,
        "Mean Anomaly(deg)": -38.43476953953577,
        "RAAN(deg)": 129.99118090868296,
        "Satellite Name": "Starlink Shell 1 591",
        "Satellite Number": 591,
        "Semi-Major Axis(m)": 6931778.249405717,
        "Time(s)": 170
    },
    {
        "Altitude(m)": 562296.4587794567,
        "Argument of Periapsis(deg)": 0.006274412631202263,
        "Eccentricity": 0.0,
        "Inclination(deg)": 53.0,
        "Latitude(deg)": -29.510932859712447,
        "Longitude(deg)": 4.16951530920118,
        "Mean Anomaly(deg)": -37.80793833597908,
        "RAAN(deg)": 129.9906621386055,
        "Satellite Name": "Starlink Shell 1 591",
        "Satellite Number": 591,
        "Semi-Major Axis(m)": 6931778.249405717,
        "Time(s)": 180
    }
]